{"fetched_at":"2026-03-29T02:12:04Z","count":15717,"tles":[{"name":"STARLINK-3843","line1":"1 52341U 22045L   26087.50386280 -.00000743  00000+0 -28606-4 0  9994","line2":"2 52341  53.2174 124.6122 0001405  93.0203 267.0949 15.08838917218484","category":"Starlink"}]}